{
    "links": {
        "self": "http://www.neowsapp.com/rest/v1/neo/3397495?api_key=iIulBulltgU6a56xZRHN4H3l9WmuAYTsLGpBGhQ2"
    },
    "id": "3397495",
    "neo_reference_id": "3397495",
    "name": "(2007 XO)",
    "designation": "2007 XO",
    "nasa_jpl_url": "http://ssd.jpl.nasa.gov/sbdb.cgi?sstr=3397495",
    "absolute_magnitude_h": 24.482,
    "estimated_diameter": {
        "kilometers": {
            "estimated_diameter_min": 0.033740769,
            "estimated_diameter_max": 0.0754466531
        },
        "meters": {
            "estimated_diameter_min": 33.7407690041,
            "estimated_diameter_max": 75.4466531064
        },
        "miles": {
            "estimated_diameter_min": 0.0209655354,
            "estimated_diameter_max": 0.0468803623
        },
        "feet": {
            "estimated_diameter_min": 110.6980645796,
            "estimated_diameter_max": 247.5283973776
        }
    },
    "is_potentially_hazardous_asteroid": false,
    "close_approach_data": [
        {
            "close_approach_date": "2007-12-07",
            "close_approach_date_full": "2007-Dec-07 05:12",
            "epoch_date_close_approach": 1197004320000,
            "relative_velocity": {
                "kilometers_per_second": "24.0807940273",
                "kilometers_per_hour": "86690.8584983066",
                "miles_per_hour": "53866.3281596839"
            },
            "miss_distance": {
                "astronomical": "0.0290697584",
                "lunar": "11.3081360176",
                "kilometers": "4348773.938054608",
                "miles": "2702202.8222972704"
            },
            "orbiting_body": "Earth"
        }
    ],
    "orbital_data": {
        "orbit_id": "7",
        "orbit_determination_date": "2017-04-06 09:04:59",
        "first_observation_date": "2007-12-04",
        "last_observation_date": "2007-12-04",
        "data_arc_in_days": null,
        "observations_used": 15,
        "orbit_uncertainty": "9",
        "minimum_orbit_intersection": ".0178906",
        "jupiter_tisserand_invariant": "3.989",
        "epoch_osculation": "2454438.5",
        "eccentricity": ".7268195768834076",
        "semi_major_axis": "1.59997294273929",
        "inclination": "14.79203424817841",
        "ascending_node_longitude": "69.78152756664554",
        "orbital_period": "739.2092357595122",
        "perihelion_distance": ".4370812854726187",
        "perihelion_argument": "113.0086251803072",
        "aphelion_distance": "2.762864600005961",
        "perihelion_time": "2454489.088250313706",
        "mean_anomaly": "335.3631729259684",
        "mean_motion": ".4870069022204685",
        "equinox": "J2000",
        "orbit_class": {
            "orbit_class_type": "APO",
            "orbit_class_description": "Near-Earth asteroid orbits which cross the Earth’s orbit similar to that of 1862 Apollo",
            "orbit_class_range": "a (semi-major axis) > 1.0 AU; q (perihelion) < 1.017 AU"
        }
    },
    "is_sentry_object": false
}